OBJECT_NAME,OBJECT_ID,EPOCH,MEAN_MOTION,ECCENTRICITY,INCLINATION,RA_OF_ASC_NODE,ARG_OF_PERICENTER,MEAN_ANOMALY,EPHEMERIS_TYPE,CLASSIFICATION_TYPE,NORAD_CAT_ID,ELEMENT_SET_NO,REV_AT_EPOCH,BSTAR,MEAN_MOTION_DOT,MEAN_MOTION_DDOT
STARLINK-31887,2024-097E,2026-06-25T23:25:18.968736,15.27577208,.00013871,43.0043,23.1682,263.1898,96.8796,0,U,59839,999,11847,.10245742E-3,.2558E-4,0
STARLINK-31852,2024-097G,2026-06-25T15:02:24.995616,15.27578839,.0001563,43.0038,17.0632,273.5071,86.5602,0,U,59841,999,11851,.8489006E-5,-.29E-6,0
STARLINK-31906,2024-097H,2026-06-26T06:50:12.066432,15.27579879,.00015624,43.0054,21.1936,275.9714,84.0960,0,U,59842,999,11852,-.62036141E-4,-.1969E-4,0
STARLINK-31857,2024-097J,2026-06-25T23:41:45.694752,15.27577180,.00010423,43.0018,22.3912,282.9639,77.1096,0,U,59843,999,11848,.6097046E-5,-.94E-6,0
STARLINK-31851,2024-097K,2026-06-26T06:18:44.605728,15.27576723,.00010677,43.0018,21.0309,277.2762,82.7968,0,U,59844,999,11852,-.8711922E-5,-.502E-5,0
STARLINK-31903,2024-097L,2026-06-26T06:29:23.502624,15.27560082,.00013351,43.0046,14.1566,253.8096,106.2609,0,U,59845,999,11860,.6161078E-5,-.93E-6,0
STARLINK-31922,2024-097M,2026-06-26T06:03:55.821888,15.27585068,.00015191,43.0002,20.9460,278.9731,81.0949,0,U,59846,999,11852,.3417823E-5,-.168E-5,0
STARLINK-31889,2024-097N,2026-06-25T23:32:43.201248,15.27583538,.00012925,43.0019,23.2102,267.1405,92.9299,0,U,59847,999,11847,.48517026E-4,.1073E-4,0
STARLINK-31859,2024-097P,2026-06-26T06:38:38.880096,15.27569748,.00012729,43.0052,14.2055,294.5868,65.4851,0,U,59848,999,11860,-.4590163E-5,-.388E-5,0
STARLINK-31895,2024-097Q,2026-06-24T21:27:00.325728,15.27590116,.00013725,43.0006,28.8130,270.3617,89.7078,0,U,59849,999,11831,.2829859E-3,.7535E-4,0
STARLINK-31899,2024-097R,2026-06-26T06:29:50.825760,15.27576384,.00011372,43.0051,21.0844,277.0183,83.0539,0,U,59850,999,11852,-.14893243E-4,-.672E-5,0
STARLINK-31896,2024-097S,2026-06-26T06:35:24.161280,15.27549706,.00001289,43.0019,21.1118,194.4530,165.6318,0,U,59851,999,11852,.3980482E-3,.10697E-3,0
STARLINK-31892,2024-097U,2026-06-25T13:45:35.025120,15.27576109,.000126,43.0052,25.3105,261.0564,99.0146,0,U,59853,999,11841,-.24541E-4,-.937E-5,0
STARLINK-31891,2024-097V,2026-06-24T23:43:43.573728,15.27571423,.00011029,43.0031,28.6627,271.1633,88.9092,0,U,59854,999,11832,.1081792E-3,.2715E-4,0
STARLINK-31882,2024-097W,2026-06-26T06:33:05.901408,15.27571124,.00021937,43.0054,14.1677,265.9997,94.0604,0,U,59855,999,11860,-.6761817E-4,-.2122E-4,0
STARLINK-31691,2024-097X,2026-06-25T14:11:16.088352,15.27580258,.00013827,43.0004,24.5752,271.6095,88.4598,0,U,59856,999,11842,.37995226E-4,.784E-5,0
STARLINK-31569,2024-097Y,2026-06-26T06:44:38.483808,15.27576066,.00014657,43.0047,21.1619,280.4582,79.6104,0,U,59857,999,11852,.30968421E-4,.59E-5,0
STARLINK-31654,2024-098A,2026-06-26T05:48:01.266048,15.27584567,.00007158,42.9992,17.5286,275.9753,84.1017,0,U,59858,999,11852,.4575058E-5,-.136E-5,0
STARLINK-31442,2024-098B,2026-06-25T23:42:27.203040,15.27580984,.00014076,43.0029,30.2859,272.8462,87.2229,0,U,59859,999,11836,.16745123E-4,.199E-5,0
STARLINK-31651,2024-098C,2026-06-25T22:51:20.397888,15.27580994,.00010221,43.0046,26.5789,286.0846,73.9893,0,U,59860,999,11840,.2069316E-4,.307E-5,0
STARLINK-31584,2024-098E,2026-06-26T06:27:19.903968,15.27570256,.00007275,43.0016,24.6572,273.3674,86.7095,0,U,59862,999,11845,-.58856522E-4,-.1881E-4,0
STARLINK-31950,2024-098F,2026-06-26T06:53:15.098784,15.27563322,.00005424,42.9994,24.7884,288.1624,71.9168,0,U,59863,999,11845,-.60428112E-4,-.1923E-4,0
STARLINK-31931,2024-098G,2026-06-24T22:21:50.582880,15.27581400,.00011779,43.0056,32.6777,265.0358,95.0359,0,U,59864,999,11824,.2818739E-4,.514E-5,0
STARLINK-31938,2024-098H,2026-06-25T06:40:10.560000,15.27579336,.0001174,43.0015,30.1083,275.9233,84.1485,0,U,59865,999,11830,.27355E-4,.491E-5,0
STARLINK-31941,2024-098J,2026-06-25T13:18:40.984128,15.27636209,.0001524,42.9999,11.0846,283.0067,77.0615,0,U,59866,999,11854,-.39736E-3,-.11199E-3,0
STARLINK-31952,2024-098K,2026-06-25T15:17:13.191072,15.27566418,.00012867,43.0043,28.5074,265.7716,94.2989,0,U,59867,999,11835,.10046959E-3,.2502E-4,0
STARLINK-31921,2024-098L,2026-06-25T22:03:03.023136,15.27582617,.00008958,43.0022,346.4231,276.2843,83.7906,0,U,59868,999,11885,-.33388538E-4,-.1181E-4,0
STARLINK-31760,2024-098M,2026-06-25T23:22:47.581248,15.27582436,.00011895,43.0047,26.7398,273.0603,87.0113,0,U,59869,999,11840,.26946439E-4,.479E-5,0
STARLINK-31945,2024-098N,2026-06-25T23:21:27.218016,15.27568596,.00012426,43.0052,22.4066,288.8626,71.2091,0,U,59870,999,11845,-.1108601E-5,-.293E-5,0
STARLINK-31937,2024-098P,2026-06-26T06:39:49.574304,15.27579124,.00014822,43.0048,17.7966,268.6667,91.4015,0,U,59871,999,11853,-.28840461E-4,-.1056E-4,0
STARLINK-31940,2024-098R,2026-06-25T21:36:52.437888,15.27571631,.00011317,43.0036,19.2592,260.8631,99.2093,0,U,59873,999,11848,.10164545E-3,.2535E-4,0
STARLINK-31933,2024-098S,2026-06-26T06:36:35.497440,15.27568457,.00002512,43.0002,24.7041,241.1605,118.9221,0,U,59874,999,11845,-.10553786E-3,-.3163E-4,0
STARLINK-31936,2024-098T,2026-06-25T13:21:18.201888,15.27575088,.0001523,43.0053,356.4919,270.0623,90.0054,0,U,59875,999,11870,.38587E-4,.8E-5,0
STARLINK-31935,2024-098U,2026-06-24T23:44:54.041568,15.27579755,.00013668,43.0042,32.2491,267.9111,92.1584,0,U,59876,999,11825,.50365123E-4,.1124E-4,0
STARLINK-31934,2024-098V,2026-06-26T06:15:04.737600,15.27569366,.00008582,43.0011,21.1272,270.1414,89.9339,0,U,59877,999,11849,-.21612225E-4,-.856E-5,0
STARLINK-31943,2024-098W,2026-06-26T06:51:57.854592,15.45797603,.00199831,42.9978,19.5654,266.4457,93.4115,0,U,59878,999,11786,.20388843E-2,.102952E-2,0
STARLINK-31926,2024-098X,2026-06-26T05:41:24.542304,15.27573281,.00010563,43.0007,14.4730,278.8209,81.2523,0,U,59879,999,11856,.2253807E-3,.5944E-4,0
STARLINK-31919,2024-098Y,2026-06-26T06:47:41.023680,15.27575897,.00009151,43.0034,24.7553,271.5374,88.5373,0,U,59880,999,11845,-.291592E-6,-.27E-5,0
PREFIRE-2,2024-099A,2026-06-26T03:24:24.356448,15.21126492,.00123074,97.4082,33.1889,166.6889,193.4674,0,U,59881,999,11549,.17799704E-3,.3899E-4,0
STARLINK-31974,2024-100A,2026-06-25T13:20:36.797280,15.27583839,.0001575,43.0031,236.2293,280.7647,79.3028,0,U,59885,999,11755,.61708E-4,.1436E-4,0
STARLINK-31975,2024-100B,2026-06-25T13:24:18.968832,15.27580897,.0001451,43.0026,236.2477,264.4031,95.6655,0,U,59886,999,11765,.43016E-4,.922E-5,0
STARLINK-31976,2024-100C,2026-06-25T11:07:07.214016,15.27587196,.0001334,43.0000,240.6832,281.3391,78.7311,0,U,59887,999,11759,-.15576E-4,-.691E-5,0
STARLINK-31965,2024-100D,2026-06-25T12:06:48.798144,15.27618084,.0001991,43.0010,236.7035,268.2095,91.8529,0,U,59888,999,11754,.11294E-2,.30984E-3,0
STARLINK-31969,2024-100E,2026-06-25T14:51:46.162656,15.27581746,.00012199,43.0010,232.3896,266.9939,93.0773,0,U,59889,999,11770,.48766295E-4,.108E-4,0
STARLINK-31951,2024-100F,2026-06-25T12:58:24.540384,15.27583223,.0001201,43.0014,236.1093,269.8472,90.2242,0,U,59890,999,11755,.4416E-4,.953E-5,0
STARLINK-31949,2024-100G,2026-06-25T11:40:54.399936,15.27583735,.0001243,43.0025,236.5597,271.3572,88.7137,0,U,59891,999,11754,.22076E-4,.345E-5,0
STARLINK-31977,2024-100H,2026-06-25T14:21:00.215424,15.27581333,.00014416,43.0016,228.7591,257.2970,102.7721,0,U,59892,999,11774,-.21011022E-4,-.84E-5,0
STARLINK-31963,2024-100J,2026-06-25T13:35:25.143072,15.27582779,.00014191,43.0019,236.3055,274.6278,85.4411,0,U,59893,999,11765,.57079134E-4,.1309E-4,0
STARLINK-31961,2024-100K,2026-06-25T14:46:54.660288,15.27590473,.00015965,43.0016,228.8932,264.0364,96.0306,0,U,59894,999,11774,-.22992837E-4,-.895E-5,0
STARLINK-31964,2024-100L,2026-06-25T12:43:35.568192,15.27592091,.0001188,43.0000,236.0295,274.5251,85.5465,0,U,59895,999,11760,.68277E-4,.1618E-4,0
STARLINK-31905,2024-100M,2026-06-25T10:24:06.566112,15.27589652,.0001221,43.0010,233.5676,282.0832,77.9883,0,U,59896,999,11767,.15369E-3,.3971E-4,0
STARLINK-31928,2024-100N,2026-06-25T12:17:54.949920,15.27584234,.000141,43.0007,236.7603,271.9496,88.1194,0,U,59897,999,11754,.43665E-4,.94E-5,0
STARLINK-31953,2024-100P,2026-06-25T15:01:02.429184,15.27580971,.00014872,43.0015,232.4323,274.3660,85.7022,0,U,59898,999,11770,.53721215E-4,.1216E-4,0
STARLINK-31942,2024-100Q,2026-06-25T11:29:47.880096,15.27617011,.0001593,43.0025,236.5068,262.9476,97.1195,0,U,59899,999,11763,-.2768E-3,-.788E-4,0
STARLINK-31676,2024-100R,2026-06-25T11:55:41.903328,15.27588807,.0001702,43.0027,236.6441,267.6746,92.3911,0,U,59900,999,11753,.68279E-4,.1618E-4,0
STARLINK-31908,2024-100S,2026-06-25T13:07:12.606816,15.27581251,.0001311,43.0007,229.2373,276.8180,83.2522,0,U,59901,999,11772,.23951E-4,.397E-5,0
STARLINK-31914,2024-100T,2026-06-25T13:46:31.262016,15.27583670,.00013,43.0007,236.3584,269.4417,90.6286,0,U,59902,999,11754,.48598927E-4,.1076E-4,0
STARLINK-31850,2024-100U,2026-06-25T12:51:02.007360,15.27573367,.0001434,42.9998,236.0567,285.9211,74.1482,0,U,59903,999,11759,-.70046E-6,-.281E-5,0
STARLINK-31924,2024-100V,2026-06-24T21:27:57.082752,15.27580317,.00011183,43.0018,239.8561,272.8341,87.2382,0,U,59904,999,11754,.23048218E-4,.372E-5,0
STARLINK-31898,2024-100W,2026-06-25T14:57:18.965088,15.27585771,.00013948,43.0019,232.4128,265.2852,94.7841,0,U,59905,999,11769,.69154517E-4,.1642E-4,0
STARLINK-31861,2024-100X,2026-06-25T12:59:48.105600,15.27582601,.0001134,43.0023,229.1691,283.1888,76.8837,0,U,59906,999,11772,-.25522E-6,-.269E-5,0
STARLINK-31920,2024-100Y,2026-06-26T06:00:02.000160,15.59795917,.00214862,42.9885,182.1053,106.8317,221.2897,0,U,59907,999,587,.25610508E-2,.218732E-2,0
EARTHCARE,2024-101A,2026-06-26T07:24:27.499104,15.57023260,.00014669,97.0525,303.7936,100.0466,260.0956,0,U,59908,999,11798,.16927578E-3,.12129E-3,0
TIANQI-25,2024-102A,2026-06-26T05:41:41.247744,13.99173533,.0012704,44.9756,221.6777,278.7249,81.2144,0,U,59909,999,10617,.7927597E-4,-.13E-6,0
